STARLINK-35843          
1 67606U 26018T   26051.13034625  .00177600  00000+0  11634-2 0  9997
2 67606  97.2831 116.0713 0001768 114.9461 245.1988 15.75261281  4542
STARLINK-36351          
1 67607U 26018U   26051.25002315 -.00090392  00000+0 -61114-3 0  9995
2 67607  97.2840 116.2318 0001228  76.6771 319.6148 15.75206951  4600
STARLINK-36411          
1 67608U 26018V   26051.16893112  .00124576  00000+0  64008-3 0  9994
2 67608  97.2852 116.1699 0001642  83.1673 276.9783 15.80876812  4558
STARLINK-36312          
1 67609U 26018W   26051.25002315 -.00044541  00000+0 -29935-3 0  9997
2 67609  97.2843 116.2373 0001509 110.8433 297.4525 15.75186105  4604
STARLINK-36387          
1 67610U 26018X   26051.16630561  .00049034  00000+0  25502-3 0  9995
2 67610  97.2857 116.1738 0001512  88.7137 271.4305 15.80839264  4552
STARLINK-36636          
1 67611U 26018Y   26051.16523197  .00105956  00000+0  54561-3 0  9995
2 67611  97.2870 116.1687 0001915  82.0921 278.0565 15.80879244  4559
STARLINK-36407          
1 67612U 26018Z   26051.25002315 -.00070676  00000+0 -47670-3 0  9995
2 67612  97.2845 116.2536 0001435  90.4378 353.8522 15.75198918  4654
STARLINK-36597          
1 67613U 26018AA  26051.16329350  .00142887  00000+0  73224-3 0  9993
2 67613  97.2852 116.1766 0001859  62.7090 297.4367 15.80884549  4557
NEONSAT-1A              
1 67614U 26019A   26050.92655100  .00003252  00000+0  21714-3 0  9992
2 67614  97.4106 175.1425 0012173 230.7622 129.2527 15.07636571  3141
ELECTRON KICK STAGE R/B 
1 67616U 26019C   26050.86915053  .00448324  61631-4  18737-2 0  9998
2 67616  97.4031 176.7416 0162219 187.0200 172.8791 15.68297502  3242
STARLINK-36548          
1 67617U 26020A   26050.94089969  .00164959  00000+0  99466-3 0  9994
2 67617  42.9968 250.1525 0001158 252.3981 107.6762 15.76405715  3285
STARLINK-36601          
1 67618U 26020B   26050.90468945  .00689361  00000+0  29532-2 0  9991
2 67618  42.9979 249.8590 0003254 300.6991  59.3560 15.82518971  3287
