CCSDS_OMM_VERS = 2.0
CREATION_DATE  = 
ORIGINATOR     = 

OBJECT_NAME    = STARLINK-35843
OBJECT_ID      = 2026-018T
CENTER_NAME    = EARTH
REF_FRAME      = TEME
TIME_SYSTEM    = UTC
MEAN_ELEMENT_THEORY = SGP/SGP4

EPOCH          = 2026-02-20T03:07:41.916000
MEAN_MOTION    = 15.75261281
ECCENTRICITY   = .00017688
INCLINATION    = 97.2831
RA_OF_ASC_NODE = 116.0713
ARG_OF_PERICENTER = 114.9461
MEAN_ANOMALY   = 245.1988

EPHEMERIS_TYPE = 0
CLASSIFICATION_TYPE = U
NORAD_CAT_ID   = 67606
ELEMENT_SET_NO = 999
REV_AT_EPOCH   = 454
BSTAR          = .11633792E-2
MEAN_MOTION_DOT = .1776E-2
MEAN_MOTION_DDOT = 0

CCSDS_OMM_VERS = 2.0
CREATION_DATE  = 
ORIGINATOR     = 

OBJECT_NAME    = STARLINK-36351
OBJECT_ID      = 2026-018U
CENTER_NAME    = EARTH
REF_FRAME      = TEME
TIME_SYSTEM    = UTC
MEAN_ELEMENT_THEORY = SGP/SGP4

EPOCH          = 2026-02-20T06:00:02.000160
MEAN_MOTION    = 15.75206951
ECCENTRICITY   = .00012284
INCLINATION    = 97.2840
RA_OF_ASC_NODE = 116.2318
ARG_OF_PERICENTER = 76.6771
MEAN_ANOMALY   = 319.6148

EPHEMERIS_TYPE = 0
CLASSIFICATION_TYPE = U
NORAD_CAT_ID   = 67607
ELEMENT_SET_NO = 999
REV_AT_EPOCH   = 460
BSTAR          = -.61113781E-3
MEAN_MOTION_DOT = -.90392E-3
MEAN_MOTION_DDOT = 0

CCSDS_OMM_VERS = 2.0
CREATION_DATE  = 
ORIGINATOR     = 

OBJECT_NAME    = STARLINK-36411
OBJECT_ID      = 2026-018V
CENTER_NAME    = EARTH
REF_FRAME      = TEME
TIME_SYSTEM    = UTC
MEAN_ELEMENT_THEORY = SGP/SGP4

EPOCH          = 2026-02-20T04:03:15.648768
MEAN_MOTION    = 15.80876812
ECCENTRICITY   = .00016426
INCLINATION    = 97.2852
RA_OF_ASC_NODE = 116.1699
ARG_OF_PERICENTER = 83.1673
MEAN_ANOMALY   = 276.9783

EPHEMERIS_TYPE = 0
CLASSIFICATION_TYPE = U
NORAD_CAT_ID   = 67608
ELEMENT_SET_NO = 999
REV_AT_EPOCH   = 455
BSTAR          = .64007744E-3
MEAN_MOTION_DOT = .124576E-2
MEAN_MOTION_DDOT = 0

CCSDS_OMM_VERS = 2.0
CREATION_DATE  = 
ORIGINATOR     = 

OBJECT_NAME    = STARLINK-36312
OBJECT_ID      = 2026-018W
CENTER_NAME    = EARTH
REF_FRAME      = TEME
TIME_SYSTEM    = UTC
MEAN_ELEMENT_THEORY = SGP/SGP4

EPOCH          = 2026-02-20T06:00:02.000160
MEAN_MOTION    = 15.75186105
ECCENTRICITY   = .00015093
INCLINATION    = 97.2843
RA_OF_ASC_NODE = 116.2373
ARG_OF_PERICENTER = 110.8433
MEAN_ANOMALY   = 297.4525

EPHEMERIS_TYPE = 0
CLASSIFICATION_TYPE = U
NORAD_CAT_ID   = 67609
ELEMENT_SET_NO = 999
REV_AT_EPOCH   = 460
BSTAR          = -.29935137E-3
MEAN_MOTION_DOT = -.44541E-3
MEAN_MOTION_DDOT = 0

CCSDS_OMM_VERS = 2.0
CREATION_DATE  = 
ORIGINATOR     = 

OBJECT_NAME    = STARLINK-36387
OBJECT_ID      = 2026-018X
CENTER_NAME    = EARTH
REF_FRAME      = TEME
TIME_SYSTEM    = UTC
MEAN_ELEMENT_THEORY = SGP/SGP4

EPOCH          = 2026-02-20T03:59:28.804704
MEAN_MOTION    = 15.80839264
ECCENTRICITY   = .00015122
INCLINATION    = 97.2857
RA_OF_ASC_NODE = 116.1738
ARG_OF_PERICENTER = 88.7137
MEAN_ANOMALY   = 271.4305

EPHEMERIS_TYPE = 0
CLASSIFICATION_TYPE = U
NORAD_CAT_ID   = 67610
ELEMENT_SET_NO = 999
REV_AT_EPOCH   = 455
BSTAR          = .25501961E-3
MEAN_MOTION_DOT = .49034E-3
MEAN_MOTION_DDOT = 0

CCSDS_OMM_VERS = 2.0
CREATION_DATE  = 
ORIGINATOR     = 

OBJECT_NAME    = STARLINK-36636
OBJECT_ID      = 2026-018Y
CENTER_NAME    = EARTH
REF_FRAME      = TEME
TIME_SYSTEM    = UTC
MEAN_ELEMENT_THEORY = SGP/SGP4

EPOCH          = 2026-02-20T03:57:56.042208
MEAN_MOTION    = 15.80879244
ECCENTRICITY   = .00019156
INCLINATION    = 97.2870
RA_OF_ASC_NODE = 116.1687
ARG_OF_PERICENTER = 82.0921
MEAN_ANOMALY   = 278.0565

EPHEMERIS_TYPE = 0
CLASSIFICATION_TYPE = U
NORAD_CAT_ID   = 67611
ELEMENT_SET_NO = 999
REV_AT_EPOCH   = 455
BSTAR          = .54561048E-3
MEAN_MOTION_DOT = .105956E-2
MEAN_MOTION_DDOT = 0

CCSDS_OMM_VERS = 2.0
CREATION_DATE  = 
ORIGINATOR     = 

OBJECT_NAME    = STARLINK-36407
OBJECT_ID      = 2026-018Z
CENTER_NAME    = EARTH
REF_FRAME      = TEME
TIME_SYSTEM    = UTC
MEAN_ELEMENT_THEORY = SGP/SGP4

EPOCH          = 2026-02-20T06:00:02.000160
MEAN_MOTION    = 15.75198918
ECCENTRICITY   = .00014352
INCLINATION    = 97.2845
RA_OF_ASC_NODE = 116.2536
ARG_OF_PERICENTER = 90.4378
MEAN_ANOMALY   = 353.8522

EPHEMERIS_TYPE = 0
CLASSIFICATION_TYPE = U
NORAD_CAT_ID   = 67612
ELEMENT_SET_NO = 999
REV_AT_EPOCH   = 465
BSTAR          = -.47670053E-3
MEAN_MOTION_DOT = -.70676E-3
MEAN_MOTION_DDOT = 0

CCSDS_OMM_VERS = 2.0
CREATION_DATE  = 
ORIGINATOR     = 

OBJECT_NAME    = STARLINK-36597
OBJECT_ID      = 2026-018AA
CENTER_NAME    = EARTH
REF_FRAME      = TEME
TIME_SYSTEM    = UTC
MEAN_ELEMENT_THEORY = SGP/SGP4

EPOCH          = 2026-02-20T03:55:08.558400
MEAN_MOTION    = 15.80884549
ECCENTRICITY   = .0001859
INCLINATION    = 97.2852
RA_OF_ASC_NODE = 116.1766
ARG_OF_PERICENTER = 62.7090
MEAN_ANOMALY   = 297.4367

EPHEMERIS_TYPE = 0
CLASSIFICATION_TYPE = U
NORAD_CAT_ID   = 67613
ELEMENT_SET_NO = 999
REV_AT_EPOCH   = 455
BSTAR          = .732239E-3
MEAN_MOTION_DOT = .142887E-2
MEAN_MOTION_DDOT = 0

CCSDS_OMM_VERS = 2.0
CREATION_DATE  = 
ORIGINATOR     = 

OBJECT_NAME    = NEONSAT-1A
OBJECT_ID      = 2026-019A
CENTER_NAME    = EARTH
REF_FRAME      = TEME
TIME_SYSTEM    = UTC
MEAN_ELEMENT_THEORY = SGP/SGP4

EPOCH          = 2026-02-19T22:14:14.006400
MEAN_MOTION    = 15.07636571
ECCENTRICITY   = .0012173
INCLINATION    = 97.4106
RA_OF_ASC_NODE = 175.1425
ARG_OF_PERICENTER = 230.7622
MEAN_ANOMALY   = 129.2527

EPHEMERIS_TYPE = 0
CLASSIFICATION_TYPE = U
NORAD_CAT_ID   = 67614
ELEMENT_SET_NO = 999
REV_AT_EPOCH   = 314
BSTAR          = .21714E-3
MEAN_MOTION_DOT = .3252E-4
MEAN_MOTION_DDOT = 0

CCSDS_OMM_VERS = 2.0
CREATION_DATE  = 
ORIGINATOR     = 

OBJECT_NAME    = ELECTRON KICK STAGE R/B
OBJECT_ID      = 2026-019C
CENTER_NAME    = EARTH
REF_FRAME      = TEME
TIME_SYSTEM    = UTC
MEAN_ELEMENT_THEORY = SGP/SGP4

EPOCH          = 2026-02-19T20:51:34.605792
MEAN_MOTION    = 15.68297502
ECCENTRICITY   = .0162219
INCLINATION    = 97.4031
RA_OF_ASC_NODE = 176.7416
ARG_OF_PERICENTER = 187.0200
MEAN_ANOMALY   = 172.8791

EPHEMERIS_TYPE = 0
CLASSIFICATION_TYPE = U
NORAD_CAT_ID   = 67616
ELEMENT_SET_NO = 999
REV_AT_EPOCH   = 324
BSTAR          = .18737E-2
MEAN_MOTION_DOT = .448324E-2
MEAN_MOTION_DDOT = .61631E-4

CCSDS_OMM_VERS = 2.0
CREATION_DATE  = 
ORIGINATOR     = 

OBJECT_NAME    = STARLINK-36548
OBJECT_ID      = 2026-020A
CENTER_NAME    = EARTH
REF_FRAME      = TEME
TIME_SYSTEM    = UTC
MEAN_ELEMENT_THEORY = SGP/SGP4

EPOCH          = 2026-02-19T22:34:53.733216
MEAN_MOTION    = 15.76405715
ECCENTRICITY   = .0001158
INCLINATION    = 42.9968
RA_OF_ASC_NODE = 250.1525
ARG_OF_PERICENTER = 252.3981
MEAN_ANOMALY   = 107.6762

EPHEMERIS_TYPE = 0
CLASSIFICATION_TYPE = U
NORAD_CAT_ID   = 67617
ELEMENT_SET_NO = 999
REV_AT_EPOCH   = 328
BSTAR          = .99466E-3
MEAN_MOTION_DOT = .164959E-2
MEAN_MOTION_DDOT = 0

CCSDS_OMM_VERS = 2.0
CREATION_DATE  = 
ORIGINATOR     = 

OBJECT_NAME    = STARLINK-36601
OBJECT_ID      = 2026-020B
CENTER_NAME    = EARTH
REF_FRAME      = TEME
TIME_SYSTEM    = UTC
MEAN_ELEMENT_THEORY = SGP/SGP4

EPOCH          = 2026-02-19T21:42:45.168480
MEAN_MOTION    = 15.82518971
ECCENTRICITY   = .0003254
INCLINATION    = 42.9979
RA_OF_ASC_NODE = 249.8590
ARG_OF_PERICENTER = 300.6991
MEAN_ANOMALY   = 59.3560

EPHEMERIS_TYPE = 0
CLASSIFICATION_TYPE = U
NORAD_CAT_ID   = 67618
ELEMENT_SET_NO = 999
REV_AT_EPOCH   = 328
BSTAR          = .29532E-2
MEAN_MOTION_DOT = .689361E-2
MEAN_MOTION_DDOT = 0

